CCSDS_OMM_VERS = 2.0
CREATION_DATE  = 
ORIGINATOR     = 

OBJECT_NAME    = STARLINK-36344
OBJECT_ID      = 2026-025T
CENTER_NAME    = EARTH
REF_FRAME      = TEME
TIME_SYSTEM    = UTC
MEAN_ELEMENT_THEORY = SGP/SGP4

EPOCH          = 2026-02-26T18:22:05.456352
MEAN_MOTION    = 15.80844397
ECCENTRICITY   = .0000663
INCLINATION    = 97.2838
RA_OF_ASC_NODE = 168.8490
ARG_OF_PERICENTER = 119.9131
MEAN_ANOMALY   = 240.2203

EPHEMERIS_TYPE = 0
CLASSIFICATION_TYPE = U
NORAD_CAT_ID   = 67710
ELEMENT_SET_NO = 999
REV_AT_EPOCH   = 423
BSTAR          = .28065E-3
MEAN_MOTION_DOT = .54017E-3
MEAN_MOTION_DDOT = 0

CCSDS_OMM_VERS = 2.0
CREATION_DATE  = 
ORIGINATOR     = 

OBJECT_NAME    = STARLINK-36687
OBJECT_ID      = 2026-025U
CENTER_NAME    = EARTH
REF_FRAME      = TEME
TIME_SYSTEM    = UTC
MEAN_ELEMENT_THEORY = SGP/SGP4

EPOCH          = 2026-02-26T18:00:02.998944
MEAN_MOTION    = 15.80764695
ECCENTRICITY   = .0001166
INCLINATION    = 97.2853
RA_OF_ASC_NODE = 168.8381
ARG_OF_PERICENTER = 99.3978
MEAN_ANOMALY   = 185.0199

EPHEMERIS_TYPE = 0
CLASSIFICATION_TYPE = U
NORAD_CAT_ID   = 67711
ELEMENT_SET_NO = 999
REV_AT_EPOCH   = 425
BSTAR          = .59046E-3
MEAN_MOTION_DOT = .114181E-2
MEAN_MOTION_DDOT = 0

CCSDS_OMM_VERS = 2.0
CREATION_DATE  = 
ORIGINATOR     = 

OBJECT_NAME    = STARLINK-36705
OBJECT_ID      = 2026-025V
CENTER_NAME    = EARTH
REF_FRAME      = TEME
TIME_SYSTEM    = UTC
MEAN_ELEMENT_THEORY = SGP/SGP4

EPOCH          = 2026-02-26T18:00:02.998944
MEAN_MOTION    = 15.75208802
ECCENTRICITY   = .0001696
INCLINATION    = 97.2820
RA_OF_ASC_NODE = 168.8386
ARG_OF_PERICENTER = 63.7096
MEAN_ANOMALY   = 226.5335

EPHEMERIS_TYPE = 0
CLASSIFICATION_TYPE = U
NORAD_CAT_ID   = 67712
ELEMENT_SET_NO = 999
REV_AT_EPOCH   = 415
BSTAR          = .25689E-3
MEAN_MOTION_DOT = .38392E-3
MEAN_MOTION_DDOT = 0

CCSDS_OMM_VERS = 2.0
CREATION_DATE  = 
ORIGINATOR     = 

OBJECT_NAME    = STARLINK-36708
OBJECT_ID      = 2026-025W
CENTER_NAME    = EARTH
REF_FRAME      = TEME
TIME_SYSTEM    = UTC
MEAN_ELEMENT_THEORY = SGP/SGP4

EPOCH          = 2026-02-26T18:00:02.998944
MEAN_MOTION    = 15.80782280
ECCENTRICITY   = .0001456
INCLINATION    = 97.2855
RA_OF_ASC_NODE = 168.8622
ARG_OF_PERICENTER = 108.9545
MEAN_ANOMALY   = 236.4816

EPHEMERIS_TYPE = 0
CLASSIFICATION_TYPE = U
NORAD_CAT_ID   = 67713
ELEMENT_SET_NO = 999
REV_AT_EPOCH   = 415
BSTAR          = .58118E-3
MEAN_MOTION_DOT = .112455E-2
MEAN_MOTION_DDOT = 0

CCSDS_OMM_VERS = 2.0
CREATION_DATE  = 
ORIGINATOR     = 

OBJECT_NAME    = STARLINK-36702
OBJECT_ID      = 2026-025X
CENTER_NAME    = EARTH
REF_FRAME      = TEME
TIME_SYSTEM    = UTC
MEAN_ELEMENT_THEORY = SGP/SGP4

EPOCH          = 2026-02-26T18:00:02.998944
MEAN_MOTION    = 15.80684762
ECCENTRICITY   = .0001469
INCLINATION    = 97.2859
RA_OF_ASC_NODE = 168.8579
ARG_OF_PERICENTER = 102.8369
MEAN_ANOMALY   = 231.9825

EPHEMERIS_TYPE = 0
CLASSIFICATION_TYPE = U
NORAD_CAT_ID   = 67714
ELEMENT_SET_NO = 999
REV_AT_EPOCH   = 388
BSTAR          = .13036E-2
MEAN_MOTION_DOT = .255487E-2
MEAN_MOTION_DDOT = 0

CCSDS_OMM_VERS = 2.0
CREATION_DATE  = 
ORIGINATOR     = 

OBJECT_NAME    = STARLINK-36718
OBJECT_ID      = 2026-025Y
CENTER_NAME    = EARTH
REF_FRAME      = TEME
TIME_SYSTEM    = UTC
MEAN_ELEMENT_THEORY = SGP/SGP4

EPOCH          = 2026-02-26T18:00:02.998944
MEAN_MOTION    = 15.80712987
ECCENTRICITY   = .0001274
INCLINATION    = 97.2854
RA_OF_ASC_NODE = 168.8733
ARG_OF_PERICENTER = 125.3083
MEAN_ANOMALY   = 244.5925

EPHEMERIS_TYPE = 0
CLASSIFICATION_TYPE = U
NORAD_CAT_ID   = 67715
ELEMENT_SET_NO = 999
REV_AT_EPOCH   = 409
BSTAR          = .10301E-2
MEAN_MOTION_DOT = .200829E-2
MEAN_MOTION_DDOT = 0

CCSDS_OMM_VERS = 2.0
CREATION_DATE  = 
ORIGINATOR     = 

OBJECT_NAME    = STARLINK-36715
OBJECT_ID      = 2026-025Z
CENTER_NAME    = EARTH
REF_FRAME      = TEME
TIME_SYSTEM    = UTC
MEAN_ELEMENT_THEORY = SGP/SGP4

EPOCH          = 2026-02-26T18:00:02.998944
MEAN_MOTION    = 15.80684891
ECCENTRICITY   = .0001598
INCLINATION    = 97.2856
RA_OF_ASC_NODE = 168.8682
ARG_OF_PERICENTER = 99.1575
MEAN_ANOMALY   = 259.0155

EPHEMERIS_TYPE = 0
CLASSIFICATION_TYPE = U
NORAD_CAT_ID   = 67716
ELEMENT_SET_NO = 999
REV_AT_EPOCH   = 415
BSTAR          = .12623E-2
MEAN_MOTION_DOT = .247143E-2
MEAN_MOTION_DDOT = 0

CCSDS_OMM_VERS = 2.0
CREATION_DATE  = 
ORIGINATOR     = 

OBJECT_NAME    = STARLINK-36385
OBJECT_ID      = 2026-025AA
CENTER_NAME    = EARTH
REF_FRAME      = TEME
TIME_SYSTEM    = UTC
MEAN_ELEMENT_THEORY = SGP/SGP4

EPOCH          = 2026-02-26T18:00:02.998944
MEAN_MOTION    = 15.80729862
ECCENTRICITY   = .0001539
INCLINATION    = 97.2855
RA_OF_ASC_NODE = 168.8538
ARG_OF_PERICENTER = 126.1691
MEAN_ANOMALY   = 196.4206

EPHEMERIS_TYPE = 0
CLASSIFICATION_TYPE = U
NORAD_CAT_ID   = 67717
ELEMENT_SET_NO = 999
REV_AT_EPOCH   = 415
BSTAR          = .95208E-3
MEAN_MOTION_DOT = .185425E-2
MEAN_MOTION_DDOT = 0

CCSDS_OMM_VERS = 2.0
CREATION_DATE  = 
ORIGINATOR     = 

OBJECT_NAME    = CZ-2F DEB
OBJECT_ID      = 2026-024E
CENTER_NAME    = EARTH
REF_FRAME      = TEME
TIME_SYSTEM    = UTC
MEAN_ELEMENT_THEORY = SGP/SGP4

EPOCH          = 2026-02-26T12:31:13.086336
MEAN_MOTION    = 15.20502049
ECCENTRICITY   = .0247863
INCLINATION    = 50.3167
RA_OF_ASC_NODE = 73.3940
ARG_OF_PERICENTER = 236.1199
MEAN_ANOMALY   = 121.5956

EPHEMERIS_TYPE = 0
CLASSIFICATION_TYPE = U
NORAD_CAT_ID   = 67718
ELEMENT_SET_NO = 999
REV_AT_EPOCH   = 293
BSTAR          = .41671E-2
MEAN_MOTION_DOT = .221495E-2
MEAN_MOTION_DDOT = 0

CCSDS_OMM_VERS = 2.0
CREATION_DATE  = 
ORIGINATOR     = 

OBJECT_NAME    = CZ-2F DEB
OBJECT_ID      = 2026-024F
CENTER_NAME    = EARTH
REF_FRAME      = TEME
TIME_SYSTEM    = UTC
MEAN_ELEMENT_THEORY = SGP/SGP4

EPOCH          = 2026-02-26T12:05:25.728000
MEAN_MOTION    = 15.00106264
ECCENTRICITY   = .032343
INCLINATION    = 49.7915
RA_OF_ASC_NODE = 75.6265
ARG_OF_PERICENTER = 226.6440
MEAN_ANOMALY   = 130.7137

EPHEMERIS_TYPE = 0
CLASSIFICATION_TYPE = U
NORAD_CAT_ID   = 67719
ELEMENT_SET_NO = 999
REV_AT_EPOCH   = 256
BSTAR          = .38949E-2
MEAN_MOTION_DOT = .157222E-2
MEAN_MOTION_DDOT = 0

CCSDS_OMM_VERS = 2.0
CREATION_DATE  = 
ORIGINATOR     = 

OBJECT_NAME    = CZ-2F DEB
OBJECT_ID      = 2026-024G
CENTER_NAME    = EARTH
REF_FRAME      = TEME
TIME_SYSTEM    = UTC
MEAN_ELEMENT_THEORY = SGP/SGP4

EPOCH          = 2026-02-26T12:55:00.332256
MEAN_MOTION    = 14.97468777
ECCENTRICITY   = .0334049
INCLINATION    = 49.8311
RA_OF_ASC_NODE = 75.8690
ARG_OF_PERICENTER = 223.1135
MEAN_ANOMALY   = 134.3201

EPHEMERIS_TYPE = 0
CLASSIFICATION_TYPE = U
NORAD_CAT_ID   = 67720
ELEMENT_SET_NO = 999
REV_AT_EPOCH   = 288
BSTAR          = .39125E-2
MEAN_MOTION_DOT = .153832E-2
MEAN_MOTION_DDOT = 0

CCSDS_OMM_VERS = 2.0
CREATION_DATE  = 
ORIGINATOR     = 

OBJECT_NAME    = STARLINK-36772
OBJECT_ID      = 2026-026A
CENTER_NAME    = EARTH
REF_FRAME      = TEME
TIME_SYSTEM    = UTC
MEAN_ELEMENT_THEORY = SGP/SGP4

EPOCH          = 2026-02-11T18:04:34.000320
MEAN_MOTION    = 16.07750770
ECCENTRICITY   = .00034
INCLINATION    = 97.2800
RA_OF_ASC_NODE = 95.5280
ARG_OF_PERICENTER = 259.0800
MEAN_ANOMALY   = 81.2200

EPHEMERIS_TYPE = 0
CLASSIFICATION_TYPE = U
NORAD_CAT_ID   = 67721
ELEMENT_SET_NO = 999
REV_AT_EPOCH   = 1
BSTAR          = 0
MEAN_MOTION_DOT = -.725E-5
MEAN_MOTION_DDOT = .2293429E-5

