STARLINK-36344          
1 67710U 26025T   26057.76534093  .00054017  00000+0  28065-3 0  9993
2 67710  97.2838 168.8490 0000663 119.9131 240.2203 15.80844397  4237
STARLINK-36687          
1 67711U 26025U   26057.75003471  .00114181  00000+0  59046-3 0  9996
2 67711  97.2853 168.8381 0001166  99.3978 185.0199 15.80764695  4257
STARLINK-36705          
1 67712U 26025V   26057.75003471  .00038392  00000+0  25689-3 0  9992
2 67712  97.2820 168.8386 0001696  63.7096 226.5335 15.75208802  4150
STARLINK-36708          
1 67713U 26025W   26057.75003471  .00112455  00000+0  58118-3 0  9999
2 67713  97.2855 168.8622 0001456 108.9545 236.4816 15.80782280  4154
STARLINK-36702          
1 67714U 26025X   26057.75003471  .00255487  00000+0  13036-2 0  9992
2 67714  97.2859 168.8579 0001469 102.8369 231.9825 15.80684762  3886
STARLINK-36718          
1 67715U 26025Y   26057.75003471  .00200829  00000+0  10301-2 0  9995
2 67715  97.2854 168.8733 0001274 125.3083 244.5925 15.80712987  4097
STARLINK-36715          
1 67716U 26025Z   26057.75003471  .00247143  00000+0  12623-2 0  9995
2 67716  97.2856 168.8682 0001598  99.1575 259.0155 15.80684891  4151
STARLINK-36385          
1 67717U 26025AA  26057.75003471  .00185425  00000+0  95208-3 0  9991
2 67717  97.2855 168.8538 0001539 126.1691 196.4206 15.80729862  4155
CZ-2F DEB               
1 67718U 26024E   26057.52167924  .00221495  00000+0  41671-2 0  9992
2 67718  50.3167  73.3940 0247863 236.1199 121.5956 15.20502049  2931
CZ-2F DEB               
1 67719U 26024F   26057.50377000  .00157222  00000+0  38949-2 0  9999
2 67719  49.7915  75.6265 0323430 226.6440 130.7137 15.00106264  2567
CZ-2F DEB               
1 67720U 26024G   26057.53819829  .00153832  00000+0  39125-2 0  9994
2 67720  49.8311  75.8690 0334049 223.1135 134.3201 14.97468777  2887
STARLINK-36772          
1 67721U 26026A   26042.75317130 -.00000725  22934-5  00000+0 0  9999
2 67721  97.2800  95.5280 0003400 259.0800  81.2200 16.07750770    15
